FENGYUN 1C DEB          
1 30666U 99025APY 17345.93686667 -.00000016  00000-0  18661-4 0  9991
2 30666  98.9653  22.3973 0056660 355.6699 125.2569 14.00277640551872
